{"epoch":1784710044,"count":18256,"objects":[{"id":"64584","name":"ICEYE-X53","type":"PAYLOAD","l1":"1 64584U 25135BJ  26202.62528394  .00002640  00000-0  21204-3 0  9998","l2":"2 64584  97.7351 319.2539 0002237 164.1453 195.9841 15.00915307 59249"},{"id":"66300","name":"ICEYE-X65","type":"PAYLOAD","l1":"1 66300U 25248H   26202.33437557  .00002195  00000-0  15652-3 0  9994","l2":"2 66300  45.4068 314.6149 0006027 230.0115 130.0238 15.07954753 40679"},{"id":"66301","name":"ICEYE-X66","type":"PAYLOAD","l1":"1 66301U 25248J   26202.59175052  .00002943  00000-0  19772-3 0  9990","l2":"2 66301  45.4023 312.2753 0005728 227.3407 132.6993 15.09207949 40706"},{"id":"66302","name":"ICEYE-X67","type":"PAYLOAD","l1":"1 66302U 25248K   26202.35173773  .00002268  00000-0  15604-3 0  9993","l2":"2 66302  45.4070 313.1216 0007150 226.9469 133.0815 15.09186763 40682"},{"id":"66751","name":"ICEYE-X58","type":"PAYLOAD","l1":"1 66751U 25276CP  26202.61051431  .00002014  00000-0  10430-3 0  9998","l2":"2 66751  97.4192 275.3571 0002788 187.0626 173.0569 15.17330329 35636"},{"id":"66752","name":"ICEYE-X59","type":"PAYLOAD","l1":"1 66752U 25276CQ  26202.14648977  .00003208  00000-0  25717-3 0  9994","l2":"2 66752  97.4403 271.9933 0001327 129.3488 230.7855 15.00788109 35363"},{"id":"66753","name":"ICEYE-X60","type":"PAYLOAD","l1":"1 66753U 25276CR  26202.42565852  .00004036  00000-0  24564-3 0  9995","l2":"2 66753  97.4208 274.0787 0002126 166.7579 193.3708 15.10963354 35530"},{"id":"66754","name":"ICEYE-X61","type":"PAYLOAD","l1":"1 66754U 25276CS  26202.16196124  .00002032  00000-0  10142-3 0  9990","l2":"2 66754  97.4187 275.0186 0002656 190.1403 169.9778 15.18631178 35570"},{"id":"66755","name":"ICEYE-X62","type":"PAYLOAD","l1":"1 66755U 25276CT  26202.18871633  .00003945  00000-0  24534-3 0  9992","l2":"2 66755  97.4179 273.3320 0001195 202.5569 157.5609 15.10185979 35460"},{"id":"67372","name":"ICEYE-X63","type":"PAYLOAD","l1":"1 67372U 26004K   26202.43667235  .00000649  00000-0  75999-4 0  9997","l2":"2 67372  97.8017 200.5436 0005000  35.6855 324.4696 14.88356623 28398"},{"id":"67373","name":"ICEYE-X64","type":"PAYLOAD","l1":"1 67373U 26004L   26202.41964744  .00000854  00000-0  99006-4 0  9994","l2":"2 67373  97.8031 200.4435 0006848  36.8812 323.2874 14.87996796 28384"},{"id":"68494","name":"ICEYE-X71","type":"PAYLOAD","l1":"1 68494U 26067CG  26202.58335648 -.00007454  00000-0 -72979-3 0  9995","l2":"2 68494  97.7620 160.2912 0000221 342.9447 244.8402 14.92071016  5777"},{"id":"68496","name":"ICEYE-X73","type":"PAYLOAD","l1":"1 68496U 26067CJ  26202.36339555  .00001967  00000-0  19777-3 0  9992","l2":"2 68496  97.7626 160.1691 0002019 138.9802 221.1569 14.92367589 16826"},{"id":"68497","name":"ICEYE-X75","type":"PAYLOAD","l1":"1 68497U 26067CK  26202.36861807  .00001029  00000-0  10651-3 0  9994","l2":"2 68497  97.7610 160.1387 0001870 136.2247 223.9120 14.92183307 16827"},{"id":"68500","name":"ICEYE-X74","type":"PAYLOAD","l1":"1 68500U 26067CN  26202.33711306  .00001557  00000-0  15991-3 0  9992","l2":"2 68500  97.7636 160.0633 0000319 280.2375  79.8808 14.91811670 16812"},{"id":"68502","name":"ICEYE-X76","type":"PAYLOAD","l1":"1 68502U 26067CQ  26202.33319798  .00000492  00000-0  54364-4 0  9998","l2":"2 68502  97.7643 160.0775 0000455 230.0423 130.0756 14.91758386 16813"}]}