{"fetched_at":"2026-07-22T07:09:49.041Z","source":"https://celestrak.org/NORAD/elements/gp.php?NAME=ICEYE&FORMAT=JSON","constellation":"iceye","records":[{"OBJECT_NAME":"ICEYE-X53","OBJECT_ID":"2025-135BJ","EPOCH":"2026-07-21T15:00:24.532416","CLASSIFICATION_TYPE":"U","MEAN_MOTION":15.00915307,"ECCENTRICITY":0.00022372,"INCLINATION":97.7351,"RA_OF_ASC_NODE":319.2539,"ARG_OF_PERICENTER":164.1453,"MEAN_ANOMALY":195.9841,"EPHEMERIS_TYPE":0,"NORAD_CAT_ID":64584,"ELEMENT_SET_NO":999,"REV_AT_EPOCH":5924,"BSTAR":0.00021203648,"MEAN_MOTION_DOT":0.0000264,"MEAN_MOTION_DDOT":0},{"OBJECT_NAME":"ICEYE-X65","OBJECT_ID":"2025-248H","EPOCH":"2026-07-21T08:01:30.049248","CLASSIFICATION_TYPE":"U","MEAN_MOTION":15.07954753,"ECCENTRICITY":0.00060271,"INCLINATION":45.4068,"RA_OF_ASC_NODE":314.6149,"ARG_OF_PERICENTER":230.0115,"MEAN_ANOMALY":130.0238,"EPHEMERIS_TYPE":0,"NORAD_CAT_ID":66300,"ELEMENT_SET_NO":999,"REV_AT_EPOCH":4067,"BSTAR":0.00015652033,"MEAN_MOTION_DOT":0.00002195,"MEAN_MOTION_DDOT":0},{"OBJECT_NAME":"ICEYE-X66","OBJECT_ID":"2025-248J","EPOCH":"2026-07-21T14:12:07.244928","CLASSIFICATION_TYPE":"U","MEAN_MOTION":15.09207949,"ECCENTRICITY":0.0005728,"INCLINATION":45.4023,"RA_OF_ASC_NODE":312.2753,"ARG_OF_PERICENTER":227.3407,"MEAN_ANOMALY":132.6993,"EPHEMERIS_TYPE":0,"NORAD_CAT_ID":66301,"ELEMENT_SET_NO":999,"REV_AT_EPOCH":4070,"BSTAR":0.00019771603,"MEAN_MOTION_DOT":0.00002943,"MEAN_MOTION_DDOT":0},{"OBJECT_NAME":"ICEYE-X67","OBJECT_ID":"2025-248K","EPOCH":"2026-07-21T08:26:30.139872","CLASSIFICATION_TYPE":"U","MEAN_MOTION":15.09186763,"ECCENTRICITY":0.000715,"INCLINATION":45.407,"RA_OF_ASC_NODE":313.1216,"ARG_OF_PERICENTER":226.9469,"MEAN_ANOMALY":133.0815,"EPHEMERIS_TYPE":0,"NORAD_CAT_ID":66302,"ELEMENT_SET_NO":999,"REV_AT_EPOCH":4068,"BSTAR":0.00015604104,"MEAN_MOTION_DOT":0.00002268,"MEAN_MOTION_DDOT":0},{"OBJECT_NAME":"ICEYE-X58","OBJECT_ID":"2025-276CP","EPOCH":"2026-07-21T14:39:08.436384","CLASSIFICATION_TYPE":"U","MEAN_MOTION":15.17330329,"ECCENTRICITY":0.00027883,"INCLINATION":97.4192,"RA_OF_ASC_NODE":275.3571,"ARG_OF_PERICENTER":187.0626,"MEAN_ANOMALY":173.0569,"EPHEMERIS_TYPE":0,"NORAD_CAT_ID":66751,"ELEMENT_SET_NO":999,"REV_AT_EPOCH":3563,"BSTAR":0.00010429964,"MEAN_MOTION_DOT":0.00002014,"MEAN_MOTION_DDOT":0},{"OBJECT_NAME":"ICEYE-X59","OBJECT_ID":"2025-276CQ","EPOCH":"2026-07-21T03:30:56.716128","CLASSIFICATION_TYPE":"U","MEAN_MOTION":15.00788109,"ECCENTRICITY":0.00013265,"INCLINATION":97.4403,"RA_OF_ASC_NODE":271.9933,"ARG_OF_PERICENTER":129.3488,"MEAN_ANOMALY":230.7855,"EPHEMERIS_TYPE":0,"NORAD_CAT_ID":66752,"ELEMENT_SET_NO":999,"REV_AT_EPOCH":3536,"BSTAR":0.00025716933,"MEAN_MOTION_DOT":0.00003208,"MEAN_MOTION_DDOT":0},{"OBJECT_NAME":"ICEYE-X60","OBJECT_ID":"2025-276CR","EPOCH":"2026-07-21T10:12:56.896128","CLASSIFICATION_TYPE":"U","MEAN_MOTION":15.10963354,"ECCENTRICITY":0.00021257,"INCLINATION":97.4208,"RA_OF_ASC_NODE":274.0787,"ARG_OF_PERICENTER":166.7579,"MEAN_ANOMALY":193.3708,"EPHEMERIS_TYPE":0,"NORAD_CAT_ID":66753,"ELEMENT_SET_NO":999,"REV_AT_EPOCH":3553,"BSTAR":0.00024564021,"MEAN_MOTION_DOT":0.00004036,"MEAN_MOTION_DDOT":0},{"OBJECT_NAME":"ICEYE-X61","OBJECT_ID":"2025-276CS","EPOCH":"2026-07-21T03:53:13.451136","CLASSIFICATION_TYPE":"U","MEAN_MOTION":15.18631178,"ECCENTRICITY":0.00026563,"INCLINATION":97.4187,"RA_OF_ASC_NODE":275.0186,"ARG_OF_PERICENTER":190.1403,"MEAN_ANOMALY":169.9778,"EPHEMERIS_TYPE":0,"NORAD_CAT_ID":66754,"ELEMENT_SET_NO":999,"REV_AT_EPOCH":3557,"BSTAR":0.00010141592,"MEAN_MOTION_DOT":0.00002032,"MEAN_MOTION_DDOT":0},{"OBJECT_NAME":"ICEYE-X62","OBJECT_ID":"2025-276CT","EPOCH":"2026-07-21T04:31:45.090912","CLASSIFICATION_TYPE":"U","MEAN_MOTION":15.10185979,"ECCENTRICITY":0.00011953,"INCLINATION":97.4179,"RA_OF_ASC_NODE":273.332,"ARG_OF_PERICENTER":202.5569,"MEAN_ANOMALY":157.5609,"EPHEMERIS_TYPE":0,"NORAD_CAT_ID":66755,"ELEMENT_SET_NO":999,"REV_AT_EPOCH":3546,"BSTAR":0.00024534088,"MEAN_MOTION_DOT":0.00003945,"MEAN_MOTION_DDOT":0},{"OBJECT_NAME":"ICEYE-X63","OBJECT_ID":"2026-004K","EPOCH":"2026-07-21T10:28:48.491040","CLASSIFICATION_TYPE":"U","MEAN_MOTION":14.88356623,"ECCENTRICITY":0.00050004,"INCLINATION":97.8017,"RA_OF_ASC_NODE":200.5436,"ARG_OF_PERICENTER":35.6855,"MEAN_ANOMALY":324.4696,"EPHEMERIS_TYPE":0,"NORAD_CAT_ID":67372,"ELEMENT_SET_NO":999,"REV_AT_EPOCH":2839,"BSTAR":0.000075999258,"MEAN_MOTION_DOT":0.00000649,"MEAN_MOTION_DDOT":0},{"OBJECT_NAME":"ICEYE-X64","OBJECT_ID":"2026-004L","EPOCH":"2026-07-21T10:04:17.538816","CLASSIFICATION_TYPE":"U","MEAN_MOTION":14.87996796,"ECCENTRICITY":0.0006848,"INCLINATION":97.8031,"RA_OF_ASC_NODE":200.4435,"ARG_OF_PERICENTER":36.8812,"MEAN_ANOMALY":323.2874,"EPHEMERIS_TYPE":0,"NORAD_CAT_ID":67373,"ELEMENT_SET_NO":999,"REV_AT_EPOCH":2838,"BSTAR":0.000099005751,"MEAN_MOTION_DOT":0.00000854,"MEAN_MOTION_DDOT":0},{"OBJECT_NAME":"ICEYE-X71","OBJECT_ID":"2026-067CG","EPOCH":"2026-07-21T14:00:01.999872","CLASSIFICATION_TYPE":"U","MEAN_MOTION":14.92071016,"ECCENTRICITY":0.00002215,"INCLINATION":97.762,"RA_OF_ASC_NODE":160.2912,"ARG_OF_PERICENTER":342.9447,"MEAN_ANOMALY":244.8402,"EPHEMERIS_TYPE":0,"NORAD_CAT_ID":68494,"ELEMENT_SET_NO":999,"REV_AT_EPOCH":577,"BSTAR":-0.00072979206,"MEAN_MOTION_DOT":-0.00007454,"MEAN_MOTION_DDOT":0},{"OBJECT_NAME":"ICEYE-X73","OBJECT_ID":"2026-067CJ","EPOCH":"2026-07-21T08:43:17.375520","CLASSIFICATION_TYPE":"U","MEAN_MOTION":14.92367589,"ECCENTRICITY":0.00020188,"INCLINATION":97.7626,"RA_OF_ASC_NODE":160.1691,"ARG_OF_PERICENTER":138.9802,"MEAN_ANOMALY":221.1569,"EPHEMERIS_TYPE":0,"NORAD_CAT_ID":68496,"ELEMENT_SET_NO":999,"REV_AT_EPOCH":1682,"BSTAR":0.00019777343,"MEAN_MOTION_DOT":0.00001967,"MEAN_MOTION_DDOT":0},{"OBJECT_NAME":"ICEYE-X75","OBJECT_ID":"2026-067CK","EPOCH":"2026-07-21T08:50:48.601248","CLASSIFICATION_TYPE":"U","MEAN_MOTION":14.92183307,"ECCENTRICITY":0.00018702,"INCLINATION":97.761,"RA_OF_ASC_NODE":160.1387,"ARG_OF_PERICENTER":136.2247,"MEAN_ANOMALY":223.912,"EPHEMERIS_TYPE":0,"NORAD_CAT_ID":68497,"ELEMENT_SET_NO":999,"REV_AT_EPOCH":1682,"BSTAR":0.00010650857,"MEAN_MOTION_DOT":0.00001029,"MEAN_MOTION_DDOT":0},{"OBJECT_NAME":"ICEYE-X74","OBJECT_ID":"2026-067CN","EPOCH":"2026-07-21T08:05:26.568384","CLASSIFICATION_TYPE":"U","MEAN_MOTION":14.9181167,"ECCENTRICITY":0.00003192,"INCLINATION":97.7636,"RA_OF_ASC_NODE":160.0633,"ARG_OF_PERICENTER":280.2375,"MEAN_ANOMALY":79.8808,"EPHEMERIS_TYPE":0,"NORAD_CAT_ID":68500,"ELEMENT_SET_NO":999,"REV_AT_EPOCH":1681,"BSTAR":0.00015990815,"MEAN_MOTION_DOT":0.00001557,"MEAN_MOTION_DDOT":0},{"OBJECT_NAME":"ICEYE-X76","OBJECT_ID":"2026-067CQ","EPOCH":"2026-07-21T07:59:48.305472","CLASSIFICATION_TYPE":"U","MEAN_MOTION":14.91758386,"ECCENTRICITY":0.00004552,"INCLINATION":97.7643,"RA_OF_ASC_NODE":160.0775,"ARG_OF_PERICENTER":230.0423,"MEAN_ANOMALY":130.0756,"EPHEMERIS_TYPE":0,"NORAD_CAT_ID":68502,"ELEMENT_SET_NO":999,"REV_AT_EPOCH":1681,"BSTAR":0.000054364042,"MEAN_MOTION_DOT":0.00000492,"MEAN_MOTION_DDOT":0}]}
